NORAD_CAT_ID,OBJECT_NAME,OBJECT_TYPE,EPOCH,MEAN_MOTION,ECCENTRICITY,INCLINATION,RA_OF_ASC_NODE,ARG_OF_PERICENTER,MEAN_ANOMALY,BSTAR,MEAN_MOTION_DOT,MEAN_MOTION_DDOT,TLE_LINE0,TLE_LINE1,TLE_LINE2,SEMIMAJOR_AXIS,PERIOD,APOGEE,PERIGEE,DECAYED
53774.0,STARLINK-4719,PAYLOAD,2024-02-22 08:06:13,15.08837098,0.0001456,53.2177,34.5055,93.8168,266.299,6.6932e-05,7.77e-06,0.0,0 STARLINK-4719,1 53774U 22111B   24053.33765378  .00000777  00000-0  66932-4 0  9990,2 53774  53.2177  34.5055 0001456  93.8168 266.2990 15.08837098 80074,6917.889,95.438,540.762,538.747,0.0
53774.0,STARLINK-4719,PAYLOAD,2024-02-23 04:46:13,15.088508,0.0001544,53.2182,30.6407,96.4286,263.6882,5.0563e-05,5.17e-06,0.0,0 STARLINK-4719,1 53774U 22111B   24054.19876603  .00000517  00000-0  50563-4 0  9994,2 53774  53.2182  30.6407 0001544  96.4286 263.6882 15.08850800 80208,6917.847,95.437,540.78,538.644,0.0
53774.0,STARLINK-4719,PAYLOAD,2024-02-23 15:53:55,15.08852144,0.0001484,53.218,28.5606,94.4554,265.6608,5.6143e-05,6.06e-06,0.0,0 STARLINK-4719,1 53774U 22111B   24054.66244353  .00000606  00000-0  56143-4 0  9996,2 53774  53.2180  28.5606 0001484  94.4554 265.6608 15.08852144 81237,6917.843,95.437,540.735,538.682,0.0
53774.0,STARLINK-4719,PAYLOAD,2024-02-24 04:37:00,15.08844769,0.0001478,53.219,26.1819,98.4513,261.6647,3.486e-05,2.67e-06,0.0,0 STARLINK-4719,1 53774U 22111B   24055.19237026  .00000267  00000-0  34860-4 0  9999,2 53774  53.2190  26.1819 0001478  98.4513 261.6647 15.08844769 80355,6917.866,95.437,540.753,538.708,0.0
53774.0,STARLINK-4719,PAYLOAD,2024-02-24 07:47:46,15.08843581,0.0001608,53.2187,25.5843,112.0545,248.0618,0.00012451,1.694e-05,0.0,0 STARLINK-4719,1 53774U 22111B   24055.32484828  .00001694  00000-0  12451-3 0  9994,2 53774  53.2187  25.5843 0001608 112.0545 248.0618 15.08843581 81331,6917.869,95.437,540.847,538.622,0.0
53774.0,STARLINK-4719,PAYLOAD,2024-02-25 14:00:06,15.08848861,0.0001418,53.219,19.9354,111.0427,249.0717,2.8043e-05,1.58e-06,0.0,0 STARLINK-4719,1 53774U 22111B   24056.58340399  .00000158  00000-0  28043-4 0  9996,2 53774  53.2190  19.9354 0001418 111.0427 249.0717 15.08848861 81524,6917.853,95.437,540.699,538.737,0.0
53774.0,STARLINK-4719,PAYLOAD,2024-02-25 21:57:02,15.08831791,0.0001482,53.2211,18.4562,87.9743,272.1419,9.8015e-05,1.272e-05,0.0,0 STARLINK-4719,1 53774U 22111B   24056.91461633  .00001272  00000-0  98015-4 0  9992,2 53774  53.2211  18.4562 0001482  87.9743 272.1419 15.08831791 81571,6917.905,95.438,540.796,538.745,0.0
53774.0,STARLINK-4719,PAYLOAD,2024-02-26 04:18:35,15.08833225,0.0001447,53.2208,17.2669,88.7001,271.4157,0.00010574,1.395e-05,0.0,0 STARLINK-4719,1 53774U 22111B   24057.17957616  .00001395  00000-0  10574-3 0  9991,2 53774  53.2208  17.2669 0001447  88.7001 271.4157 15.08833225 80652,6917.901,95.438,540.767,538.765,0.0
53774.0,STARLINK-4719,PAYLOAD,2024-02-26 21:47:49,15.08841525,0.0001721,53.2206,13.9966,107.2082,252.9099,-3.789e-05,-8.91e-06,0.0,0 STARLINK-4719,1 53774U 22111B   24057.90821705 -.00000891  00000-0 -37890-4 0  9994,2 53774  53.2206  13.9966 0001721 107.2082 252.9099 15.08841525 81724,6917.876,95.437,540.931,538.55,0.0
53774.0,STARLINK-4719,PAYLOAD,2024-02-27 07:20:07,15.08852103,0.0001281,53.2179,12.2068,93.1611,266.9528,6.4782e-05,7.44e-06,0.0,0 STARLINK-4719,1 53774U 22111B   24058.30564601  .00000744  00000-0  64782-4 0  9993,2 53774  53.2179  12.2068 0001281  93.1611 266.9528 15.08852103 80826,6917.843,95.437,540.595,538.822,0.0
53774.0,STARLINK-4719,PAYLOAD,2024-02-27 13:41:40,15.08844413,0.0001285,53.2179,11.0143,88.3793,271.7346,7.4059e-05,8.91e-06,0.0,0 STARLINK-4719,1 53774U 22111B   24058.57061029  .00000891  00000-0  74059-4 0  9999,2 53774  53.2179  11.0143 0001285  88.3793 271.7346 15.08844413 81826,6917.867,95.437,540.621,538.843,0.0
53774.0,STARLINK-4719,PAYLOAD,2024-02-28 04:00:09,15.08837018,0.0001653,53.22,8.339,88.7188,271.3994,4.7966e-05,4.75e-06,0.0,0 STARLINK-4719,1 53774U 22111B   24059.16677695  .00000475  00000-0  47966-4 0  9992,2 53774  53.2200   8.3390 0001653  88.7188 271.3994 15.08837018 80956,6917.89,95.438,540.898,538.611,0.0
53774.0,STARLINK-4719,PAYLOAD,2024-02-28 13:32:28,15.08843698,0.0001706,53.2203,6.5549,81.6268,278.4918,4.4168e-07,-2.81e-06,0.0,0 STARLINK-4719,1 53774U 22111B   24059.56421478 -.00000281  00000-0  44168-6 0  9991,2 53774  53.2203   6.5549 0001706  81.6268 278.4918 15.08843698 81973,6917.869,95.437,540.914,538.554,0.0
53774.0,STARLINK-4719,PAYLOAD,2024-02-29 13:23:15,15.08840963,0.0001647,53.2202,2.0942,88.4494,271.6686,1.4642e-05,-5.5e-07,0.0,0 STARLINK-4719,1 53774U 22111B   24060.55781761 -.00000055  00000-0  14642-4 0  9997,2 53774  53.2202   2.0942 0001647  88.4494 271.6686 15.08840963 81160,6917.877,95.437,540.882,538.603,0.0
53774.0,STARLINK-4719,PAYLOAD,2024-03-01 13:14:02,15.08843804,0.0001556,53.2192,357.6311,95.5818,264.5352,1.816e-05,1e-08,0.0,0 STARLINK-4719,1 53774U 22111B   24061.55141392  .00000001  00000-0  18160-4 0  9997,2 53774  53.2192 357.6311 0001556  95.5818 264.5352 15.08843804 82276,6917.869,95.437,540.81,538.657,0.0
53774.0,STARLINK-4719,PAYLOAD,2024-03-02 01:57:06,15.0884925,0.0001545,53.2203,355.2533,85.2551,274.8618,6.5128e-05,7.49e-06,0.0,0 STARLINK-4719,1 53774U 22111B   24062.08132835  .00000749  00000-0  65128-4 0  9993,2 53774  53.2203 355.2533 0001545  85.2551 274.8618 15.08849250 82356,6917.852,95.437,540.786,538.648,0.0
53774.0,STARLINK-4719,PAYLOAD,2024-03-02 22:37:07,15.08841908,0.0001443,53.2195,351.3858,102.4058,257.7095,7.7877e-06,-1.64e-06,0.0,0 STARLINK-4719,1 53774U 22111B   24062.94245300 -.00000164  00000-0  77877-5 0  9997,2 53774  53.2195 351.3858 0001443 102.4058 257.7095 15.08841908 82489,6917.875,95.437,540.738,538.741,0.0
53774.0,STARLINK-4719,PAYLOAD,2024-03-03 04:58:40,15.08843087,0.0001577,53.2196,350.1978,102.4317,257.6851,1.0219e-05,-1.25e-06,0.0,0 STARLINK-4719,1 53774U 22111B   24063.20741213 -.00000125  00000-0  10219-4 0  9994,2 53774  53.2196 350.1978 0001577 102.4317 257.6851 15.08843087 81563,6917.871,95.437,540.827,538.645,0.0
53774.0,STARLINK-4719,PAYLOAD,2024-03-04 11:10:59,15.08851064,0.0001286,53.2183,344.549,74.9755,285.1379,1.9034e-05,1.5e-07,0.0,0 STARLINK-4719,1 53774U 22111B   24064.46596667  .00000015  00000-0  19034-4 0  9995,2 53774  53.2183 344.5490 0001286  74.9755 285.1379 15.08851064 81757,6917.847,95.437,540.601,538.822,0.0
53774.0,STARLINK-4719,PAYLOAD,2024-03-04 22:18:42,15.08838259,0.0001521,53.219,342.4691,102.6837,257.4325,-3.4114e-06,-3.42e-06,0.0,0 STARLINK-4719,1 53774U 22111B   24064.92965678 -.00000342  00000-0 -34114-5 0  9990,2 53774  53.2190 342.4691 0001521 102.6837 257.4325 15.08838259 82785,6917.886,95.438,540.803,538.699,0.0
53774.0,STARLINK-4719,PAYLOAD,2024-03-05 01:29:28,15.08839969,0.0001389,53.2187,341.8787,96.4301,263.6849,4.821e-05,4.79e-06,0.0,0 STARLINK-4719,1 53774U 22111B   24065.06213543  .00000479  00000-0  48210-4 0  9993,2 53774  53.2187 341.8787 0001389  96.4301 263.6849 15.08839969 81843,6917.88,95.438,540.706,538.785,0.0
53774.0,STARLINK-4719,PAYLOAD,2024-03-05 04:40:14,15.08846624,0.0001276,53.2184,341.2782,82.6907,277.423,0.00012691,1.733e-05,0.0,0 STARLINK-4719,1 53774U 22111B   24065.19460737  .00001733  00000-0  12691-3 0  9993,2 53774  53.2184 341.2782 0001276  82.6907 277.4230 15.08846624 82825,6917.86,95.437,540.608,538.842,0.0
53774.0,STARLINK-4719,PAYLOAD,2024-03-05 18:58:43,15.08835792,0.0001617,53.2173,338.6023,77.6962,282.4211,-7.0827e-05,-1.415e-05,0.0,0 STARLINK-4719,1 53774U 22111B   24065.79078584 -.00001415  00000-0 -70827-4 0  9999,2 53774  53.2173 338.6023 0001617  77.6962 282.4211 15.08835792 81957,6917.893,95.438,540.877,538.64,0.0
53774.0,STARLINK-4719,PAYLOAD,2024-03-05 23:44:53,15.08836189,0.0001441,53.2184,337.7105,94.7395,265.3762,-7.4134e-05,-1.467e-05,0.0,0 STARLINK-4719,1 53774U 22111B   24065.98950572 -.00001467  00000-0 -74134-4 0  9998,2 53774  53.2184 337.7105 0001441  94.7395 265.3762 15.08836189 82947,6917.892,95.438,540.754,538.76,0.0
53774.0,STARLINK-4719,PAYLOAD,2024-03-07 02:46:25,15.08848168,0.0001493,53.2187,332.6573,81.555,278.5611,6.1202e-05,6.86e-06,0.0,0 STARLINK-4719,1 53774U 22111B   24067.11557753  .00000686  00000-0  61202-4 0  9991,2 53774  53.2187 332.6573 0001493  81.5550 278.5611 15.08848168 82159,6917.855,95.437,540.753,538.688,0.0
53774.0,STARLINK-4719,PAYLOAD,2024-03-07 10:43:22,15.08843936,0.0001427,53.2182,331.168,84.4777,275.6377,-7.023e-05,-1.406e-05,0.0,0 STARLINK-4719,1 53774U 22111B   24067.44678275 -.00001406  00000-0 -70230-4 0  9994,2 53774  53.2182 331.1680 0001427  84.4777 275.6377 15.08843936 83164,6917.868,95.437,540.721,538.746,0.0
53774.0,STARLINK-4719,PAYLOAD,2024-03-08 01:01:50,15.08836272,0.0001523,53.219,328.494,84.3301,275.7865,8.487e-05,1.063e-05,0.0,0 STARLINK-4719,1 53774U 22111B   24068.04294790  .00001063  00000-0  84870-4 0  9999,2 53774  53.2190 328.4940 0001523  84.3301 275.7865 15.08836272 82291,6917.892,95.438,540.81,538.703,0.0
53774.0,STARLINK-4719,PAYLOAD,2024-03-08 10:34:09,15.08839354,0.0001499,53.219,326.7085,97.277,262.8392,8.5421e-05,1.072e-05,0.0,0 STARLINK-4719,1 53774U 22111B   24068.44038583  .00001072  00000-0  85421-4 0  9992,2 53774  53.2190 326.7085 0001499  97.2770 262.8392 15.08839354 83317,6917.882,95.438,540.784,538.71,0.0
53774.0,STARLINK-4719,PAYLOAD,2024-03-09 02:28:00,15.08850615,0.0001555,53.2192,323.7365,83.0944,277.0225,5.3266e-05,5.6e-06,0.0,0 STARLINK-4719,1 53774U 22111B   24069.10277928  .00000560  00000-0  53266-4 0  9997,2 53774  53.2192 323.7365 0001555  83.0944 277.0225 15.08850615 82456,6917.848,95.437,540.789,538.637,0.0
53774.0,STARLINK-4719,PAYLOAD,2024-03-09 10:24:55,15.08848858,0.0001581,53.2187,322.2488,85.9392,274.1781,1.9576e-05,2.4e-07,0.0,0 STARLINK-4719,1 53774U 22111B   24069.43398032  .00000024  00000-0  19576-4 0  9994,2 53774  53.2187 322.2488 0001581  85.9392 274.1781 15.08848858 83460,6917.853,95.437,540.812,538.625,0.0
